STARLINK-31048          
1 58544U 23192P   26193.53720580 -.00000575  00000+0 -72780-5 0  9991
2 58544  53.1594 202.5415 0001310  62.4952 297.6182 15.30190331145109
STARLINK-31057          
1 58545U 23192Q   26193.36630156 -.00023312  00000+0 -67912-3 0  9995
2 58545  53.1572 201.5246 0001173 116.2635 243.8489 15.34483831145107
STARLINK-31050          
1 58546U 23192R   26193.84120906 -.00002174  00000+0 -53254-4 0  9994
2 58546  53.1590 199.5107 0001124  87.5363 272.5769 15.34386972145179
STARLINK-31063          
1 58547U 23192S   26193.00421950 -.00001276  00000+0 -30996-4 0  9996
2 58547  53.1591 194.9697 0001115  67.1508 292.9611 15.30186067145169
STARLINK-31016          
1 58548U 23192T   26193.46139231  .00001294  00000+0  49435-4 0  9991
2 58548  53.1586 202.7787 0000857  92.9522 267.1579 15.34392400145099
STARLINK-31053          
1 58549U 23192U   26193.04695162 -.00000645  00000+0 -79492-5 0  9994
2 58549  53.1568 203.0828 0001200 110.4110 249.7021 15.34394612145053
STARLINK-31056          
1 58550U 23192V   26193.08632747 -.00000581  00000+0 -75064-5 0  9990
2 58550  53.1614 204.7517 0001058  57.2984 302.8119 15.30185063145039
STARLINK-30999          
1 58551U 23192W   26193.46129873  .00001623  00000+0  59191-4 0  9992
2 58551  53.1586 192.7643 0001285  77.6839 282.4308 15.34389435145239
STARLINK-31046          
1 58552U 23192X   26193.06167080  .00001017  00000+0  41214-4 0  9995
2 58552  53.1589 203.1771 0000712  96.6737 263.4347 15.34394726145055
HONGHU 2                
1 58555U 23193C   26193.80403422  .00006673  00000+0  18819-3 0  9991
2 58555  97.2794 183.8789 0039648 175.9612 184.1960 15.35942814105943
YAOGAN-39 05A           
1 58557U 23194A   26193.86081248  .00004293  00000+0  17915-3 0  9990
2 58557  35.0006 255.9275 0006188 193.6588 166.3960 15.23078726144274
YAOGAN-39 05B           
1 58558U 23194B   26193.69972543  .00003141  00000+0  15279-3 0  9991
2 58558  34.9924 282.0285 0009758 189.7075 170.3450 15.17902562143979
YAOGAN-39 05C           
1 58559U 23194C   26193.70382928  .00003151  00000+0  15313-3 0  9996
2 58559  34.9923 282.0262 0012894 268.8205  91.1031 15.17904011144004
ALISIO-1                
1 58562U 23185M   26193.84406785  .00002149  00000+0  11145-3 0  9998
2 58562  97.5366 267.0581 0005424 213.4309 146.6582 15.17231346142440
QPS-SAR-5 (TSUKUYOMI-I) 
1 58578U 23196A   26193.81461747  .00005902  00000+0  25242-3 0  9996
2 58578  42.0078 229.8860 0025217  93.9048 266.4669 15.23153504142152
YAOGAN-41               
1 58582U 23197A   26193.87247235 -.00000358  00000+0  00000+0 0  9994
2 58582   3.0832 313.5391 0014264 198.6829 215.7743  1.00266759  9588
ARKTIKA-M 2             
1 58584U 23198A   26191.19028483  .00000186  00000+0  00000+0 0  9990
2 58584  63.2187 151.7914 6909064 267.3543  18.7503  2.00608615 18787
STARLINK-31044          
1 58589U 23200A   26193.02665740 -.00000938  00000+0 -24564-4 0  9999
2 58589  43.0017 186.8969 0001155 276.4387  83.6333 15.27580989142623
STARLINK-31062          
1 58590U 23200B   26193.06457228  .00000780  00000+0  37889-4 0  9992
2 58590  43.0020 189.7525 0001509 266.3780  93.6899 15.27573944142594
STARLINK-31096          
1 58592U 23200D   26193.32298110  .00032708  00000+0  86485-3 0  9996
2 58592  42.9940 182.2105 0014209 117.0630 243.1677 15.37720627142706
STARLINK-31094          
1 58593U 23200E   26192.99968567 -.00001118  00000+0 -31117-4 0  9995
2 58593  42.9995 186.7168 0000842 286.8982  73.1777 15.27584007142620
STARLINK-31075          
1 58594U 23200F   26193.37138376  .00007534  00000+0  28257-3 0  9992
2 58594  43.0038 184.3433 0001760 260.5230  99.5423 15.27633382142682
STARLINK-30857          
1 58595U 23200G   26193.00738988  .00000277  00000+0  19593-4 0  9999
2 58595  43.0014 186.7710 0001573 271.1253  88.9418 15.27574380142628
STARLINK-31059          
1 58596U 23200H   26193.59478985 -.00000062  00000+0  72608-5 0  9992
2 58596  43.0049  26.7350 0001393 266.9806  93.0886 15.27571662144556
STARLINK-31087          
1 58597U 23200J   26193.04836424  .00000907  00000+0  42487-4 0  9997
2 58597  43.0032 186.2254 0001663 274.7585  85.3076 15.27575506142526
STARLINK-31079          
1 58598U 23200K   26193.21588411  .00077626  00000+0  56284-3 0  9998
2 58598  42.9739 125.9132 0031919 174.4955 185.6269 15.71754835143340
STARLINK-31052          
1 58600U 23200M   26192.98683027  .00001008  00000+0  46173-4 0  9992
2 58600  43.0023 186.6193 0001555 276.9743  83.0932 15.27577412142622
STARLINK-31074          
1 58601U 23200N   26193.05607350 -.00000987  00000+0 -26333-4 0  9990
2 58601  43.0013 186.2753 0001490 280.5343  79.5340 15.27584750142632
STARLINK-31071          
1 58602U 23200P   26193.59912220 -.00000327  00000+0 -23572-5 0  9996
2 58602  43.0029  23.2532 0001298 261.2991  98.7714 15.27576278144597
STARLINK-31080          
1 58603U 23200Q   26193.32147000  .00000915  00000+0  42760-4 0  9994
2 58603  43.0011 184.8201 0001238 278.3647  81.7065 15.27581250142480
