OBJECT_NAME,OBJECT_ID,EPOCH,MEAN_MOTION,ECCENTRICITY,INCLINATION,RA_OF_ASC_NODE,ARG_OF_PERICENTER,MEAN_ANOMALY,EPHEMERIS_TYPE,CLASSIFICATION_TYPE,NORAD_CAT_ID,ELEMENT_SET_NO,REV_AT_EPOCH,BSTAR,MEAN_MOTION_DOT,MEAN_MOTION_DDOT
STARLINK-31048,2023-192P,2026-07-12T12:53:34.581120,15.30190331,.000131,53.1594,202.5415,62.4952,297.6182,0,U,58544,999,14510,-.7278E-5,-.575E-5,0
STARLINK-31057,2023-192Q,2026-07-12T08:47:28.454784,15.34483831,.00011734,53.1572,201.5246,116.2635,243.8489,0,U,58545,999,14510,-.67912191E-3,-.23312E-3,0
STARLINK-31050,2023-192R,2026-07-12T20:11:20.462784,15.34386972,.0001124,53.1590,199.5107,87.5363,272.5769,0,U,58546,999,14517,-.53254E-4,-.2174E-4,0
STARLINK-31063,2023-192S,2026-07-12T00:06:04.564800,15.30186067,.00011154,53.1591,194.9697,67.1508,292.9611,0,U,58547,999,14516,-.30995513E-4,-.1276E-4,0
STARLINK-31016,2023-192T,2026-07-12T11:04:24.295584,15.34392400,.00008577,53.1586,202.7787,92.9522,267.1579,0,U,58548,999,14509,.49434634E-4,.1294E-4,0
STARLINK-31053,2023-192U,2026-07-12T01:07:36.619968,15.34394612,.00012004,53.1568,203.0828,110.4110,249.7021,0,U,58549,999,14505,-.7949217E-5,-.645E-5,0
STARLINK-31056,2023-192V,2026-07-12T02:04:18.693408,15.30185063,.00010584,53.1614,204.7517,57.2984,302.8119,0,U,58550,999,14503,-.7506361E-5,-.581E-5,0
STARLINK-30999,2023-192W,2026-07-12T11:04:16.210272,15.34389435,.00012859,53.1586,192.7643,77.6839,282.4308,0,U,58551,999,14523,.59191433E-4,.1623E-4,0
STARLINK-31046,2023-192X,2026-07-12T01:28:48.357120,15.34394726,.00007124,53.1589,203.1771,96.6737,263.4347,0,U,58552,999,14505,.41213838E-4,.1017E-4,0
HONGHU 2,2023-193C,2026-07-12T19:17:48.556608,15.35942814,.0039648,97.2794,183.8789,175.9612,184.1960,0,U,58555,999,10594,.18819E-3,.6673E-4,0
YAOGAN-39 05A,2023-194A,2026-07-12T20:39:34.198272,15.23078726,.0006188,35.0006,255.9275,193.6588,166.3960,0,U,58557,999,14427,.17915E-3,.4293E-4,0
YAOGAN-39 05B,2023-194B,2026-07-12T16:47:36.277152,15.17902562,.0009758,34.9924,282.0285,189.7075,170.3450,0,U,58558,999,14397,.15279E-3,.3141E-4,0
YAOGAN-39 05C,2023-194C,2026-07-12T16:53:30.849792,15.17904011,.0012894,34.9923,282.0262,268.8205,91.1031,0,U,58559,999,14400,.15313E-3,.3151E-4,0
ALISIO-1,2023-185M,2026-07-12T20:15:27.462240,15.17231346,.0005424,97.5366,267.0581,213.4309,146.6582,0,U,58562,999,14244,.11145E-3,.2149E-4,0
QPS-SAR-5 (TSUKUYOMI-I),2023-196A,2026-07-12T19:33:02.949408,15.23153504,.0025217,42.0078,229.8860,93.9048,266.4669,0,U,58578,999,14215,.25242E-3,.5902E-4,0
YAOGAN-41,2023-197A,2026-07-12T20:56:21.611040,1.00266759,.0014264,3.0832,313.5391,198.6829,215.7743,0,U,58582,999,958,0,-.358E-5,0
ARKTIKA-M 2,2023-198A,2026-07-10T04:34:00.609312,2.00608615,.69090643,63.2187,151.7914,267.3543,18.7503,0,U,58584,999,1878,0,.186E-5,0
STARLINK-31044,2023-200A,2026-07-12T00:38:23.199360,15.27580989,.00011551,43.0017,186.8969,276.4387,83.6333,0,U,58589,999,14262,-.24563531E-4,-.938E-5,0
STARLINK-31062,2023-200B,2026-07-12T01:32:59.044992,15.27573944,.00015095,43.0020,189.7525,266.3780,93.6899,0,U,58590,999,14259,.37888815E-4,.78E-5,0
STARLINK-31096,2023-200D,2026-07-12T07:45:05.567040,15.37720627,.00142097,42.9940,182.2105,117.0630,243.1677,0,U,58592,999,14270,.86484755E-3,.32708E-3,0
STARLINK-31094,2023-200E,2026-07-11T23:59:32.841888,15.27584007,.00008426,42.9995,186.7168,286.8982,73.1777,0,U,58593,999,14262,-.31116507E-4,-.1118E-4,0
STARLINK-31075,2023-200F,2026-07-12T08:54:47.556864,15.27633382,.00017602,43.0038,184.3433,260.5230,99.5423,0,U,58594,999,14268,.28257247E-3,.7534E-4,0
STARLINK-30857,2023-200G,2026-07-12T00:10:38.485632,15.27574380,.00015735,43.0014,186.7710,271.1253,88.9418,0,U,58595,999,14262,.19593003E-4,.277E-5,0
STARLINK-31059,2023-200H,2026-07-12T14:16:29.843040,15.27571662,.0001393,43.0049,26.7350,266.9806,93.0886,0,U,58596,999,14455,.72608E-5,-.62E-6,0
STARLINK-31087,2023-200J,2026-07-12T01:09:38.670336,15.27575506,.00016636,43.0032,186.2254,274.7585,85.3076,0,U,58597,999,14252,.42487116E-4,.907E-5,0
STARLINK-31079,2023-200K,2026-07-12T05:10:52.387104,15.71754835,.0031919,42.9739,125.9132,174.4955,185.6269,0,U,58598,999,14334,.56284E-3,.77626E-3,0
STARLINK-31052,2023-200M,2026-07-11T23:41:02.135328,15.27577412,.00015552,43.0023,186.6193,276.9743,83.0932,0,U,58600,999,14262,.46173021E-4,.1008E-4,0
STARLINK-31074,2023-200N,2026-07-12T01:20:44.750400,15.27584750,.000149,43.0013,186.2753,280.5343,79.5340,0,U,58601,999,14263,-.26333235E-4,-.987E-5,0
STARLINK-31071,2023-200P,2026-07-12T14:22:44.158080,15.27576278,.0001298,43.0029,23.2532,261.2991,98.7714,0,U,58602,999,14459,-.23572E-5,-.327E-5,0
STARLINK-31080,2023-200Q,2026-07-12T07:42:55.008000,15.27581250,.0001238,43.0011,184.8201,278.3647,81.7065,0,U,58603,999,14248,.42760137E-4,.915E-5,0
